CCSDS_OMM_VERS = 2.0
CREATION_DATE  = 
ORIGINATOR     = 

OBJECT_NAME    = TITAN 4B R/B
OBJECT_ID      = 2000-047B
CENTER_NAME    = EARTH
REF_FRAME      = TEME
TIME_SYSTEM    = UTC
MEAN_ELEMENT_THEORY = SGP/SGP4

EPOCH          = 2025-11-13T07:20:51.158688
MEAN_MOTION    = 15.08479784
ECCENTRICITY   = .00416153
INCLINATION    = 67.9918
RA_OF_ASC_NODE = 7.5014
ARG_OF_PERICENTER = 179.0392
MEAN_ANOMALY   = 181.0845

EPHEMERIS_TYPE = 0
CLASSIFICATION_TYPE = U
NORAD_CAT_ID   = 26474
ELEMENT_SET_NO = 999
REV_AT_EPOCH   = 37535
BSTAR          = .62282852E-3
MEAN_MOTION_DOT = .9808E-4
MEAN_MOTION_DDOT = 0

CCSDS_OMM_VERS = 2.0
CREATION_DATE  = 
ORIGINATOR     = 

OBJECT_NAME    = ENVISAT
OBJECT_ID      = 2002-009A
CENTER_NAME    = EARTH
REF_FRAME      = TEME
TIME_SYSTEM    = UTC
MEAN_ELEMENT_THEORY = SGP/SGP4

EPOCH          = 2025-11-13T07:17:16.046880
MEAN_MOTION    = 14.38983266
ECCENTRICITY   = .00012989
INCLINATION    = 98.3553
RA_OF_ASC_NODE = 268.7977
ARG_OF_PERICENTER = 82.6281
MEAN_ANOMALY   = 78.8743

EPHEMERIS_TYPE = 0
CLASSIFICATION_TYPE = U
NORAD_CAT_ID   = 27386
ELEMENT_SET_NO = 999
REV_AT_EPOCH   = 24243
BSTAR          = .13615195E-3
MEAN_MOTION_DOT = .377E-5
MEAN_MOTION_DDOT = 0

CCSDS_OMM_VERS = 2.0
CREATION_DATE  = 
ORIGINATOR     = 

OBJECT_NAME    = IDEFIX & ARIANE 42P R/B
OBJECT_ID      = 2002-021B
CENTER_NAME    = EARTH
REF_FRAME      = TEME
TIME_SYSTEM    = UTC
MEAN_ELEMENT_THEORY = SGP/SGP4

EPOCH          = 2025-11-13T01:48:12.083040
MEAN_MOTION    = 14.30918292
ECCENTRICITY   = .00118957
INCLINATION    = 98.5740
RA_OF_ASC_NODE = 252.1582
ARG_OF_PERICENTER = 165.5104
MEAN_ANOMALY   = 194.6423

EPHEMERIS_TYPE = 0
CLASSIFICATION_TYPE = U
NORAD_CAT_ID   = 27422
ELEMENT_SET_NO = 999
REV_AT_EPOCH   = 22734
BSTAR          = .3092701E-3
MEAN_MOTION_DOT = .769E-5
MEAN_MOTION_DDOT = 0

CCSDS_OMM_VERS = 2.0
CREATION_DATE  = 
ORIGINATOR     = 

OBJECT_NAME    = AQUA
OBJECT_ID      = 2002-022A
CENTER_NAME    = EARTH
REF_FRAME      = TEME
TIME_SYSTEM    = UTC
MEAN_ELEMENT_THEORY = SGP/SGP4

EPOCH          = 2025-11-13T08:14:42.897120
MEAN_MOTION    = 14.61707227
ECCENTRICITY   = .00008257
INCLINATION    = 98.3991
RA_OF_ASC_NODE = 277.7539
ARG_OF_PERICENTER = 55.4467
MEAN_ANOMALY   = 109.2626

EPHEMERIS_TYPE = 0
CLASSIFICATION_TYPE = U
NORAD_CAT_ID   = 27424
ELEMENT_SET_NO = 999
REV_AT_EPOCH   = 25173
BSTAR          = .6882199E-3
MEAN_MOTION_DOT = .338E-4
MEAN_MOTION_DDOT = 0

CCSDS_OMM_VERS = 2.0
CREATION_DATE  = 
ORIGINATOR     = 

OBJECT_NAME    = CZ-4B R/B
OBJECT_ID      = 2002-024C
CENTER_NAME    = EARTH
REF_FRAME      = TEME
TIME_SYSTEM    = UTC
MEAN_ELEMENT_THEORY = SGP/SGP4

EPOCH          = 2025-11-13T03:35:34.715040
MEAN_MOTION    = 14.14518963
ECCENTRICITY   = .00500206
INCLINATION    = 98.9045
RA_OF_ASC_NODE = 6.0181
ARG_OF_PERICENTER = 355.1456
MEAN_ANOMALY   = 68.3623

EPHEMERIS_TYPE = 0
CLASSIFICATION_TYPE = U
NORAD_CAT_ID   = 27432
ELEMENT_SET_NO = 999
REV_AT_EPOCH   = 21276
BSTAR          = .1035592E-3
MEAN_MOTION_DOT = .156E-5
MEAN_MOTION_DDOT = 0

CCSDS_OMM_VERS = 2.0
CREATION_DATE  = 
ORIGINATOR     = 

OBJECT_NAME    = MIDORI II (ADEOS-II)
OBJECT_ID      = 2002-056A
CENTER_NAME    = EARTH
REF_FRAME      = TEME
TIME_SYSTEM    = UTC
MEAN_ELEMENT_THEORY = SGP/SGP4

EPOCH          = 2025-11-13T02:26:04.729632
MEAN_MOTION    = 14.29175875
ECCENTRICITY   = .00013324
INCLINATION    = 98.7589
RA_OF_ASC_NODE = 269.9098
ARG_OF_PERICENTER = 33.6575
MEAN_ANOMALY   = 326.4691

EPHEMERIS_TYPE = 0
CLASSIFICATION_TYPE = U
NORAD_CAT_ID   = 27597
ELEMENT_SET_NO = 999
REV_AT_EPOCH   = 19364
BSTAR          = .30587549E-3
MEAN_MOTION_DOT = .731E-5
MEAN_MOTION_DDOT = 0

CCSDS_OMM_VERS = 2.0
CREATION_DATE  = 
ORIGINATOR     = 

OBJECT_NAME    = H-2A R/B
OBJECT_ID      = 2002-056E
CENTER_NAME    = EARTH
REF_FRAME      = TEME
TIME_SYSTEM    = UTC
MEAN_ELEMENT_THEORY = SGP/SGP4

EPOCH          = 2025-11-12T20:55:13.058688
MEAN_MOTION    = 14.33643868
ECCENTRICITY   = .00708544
INCLINATION    = 98.3021
RA_OF_ASC_NODE = 276.8255
ARG_OF_PERICENTER = 148.8483
MEAN_ANOMALY   = 231.7537

EPHEMERIS_TYPE = 0
CLASSIFICATION_TYPE = U
NORAD_CAT_ID   = 27601
ELEMENT_SET_NO = 999
REV_AT_EPOCH   = 19737
BSTAR          = .23420461E-3
MEAN_MOTION_DOT = .627E-5
MEAN_MOTION_DDOT = 0

CCSDS_OMM_VERS = 2.0
CREATION_DATE  = 
ORIGINATOR     = 

OBJECT_NAME    = CZ-4B R/B
OBJECT_ID      = 2003-049C
CENTER_NAME    = EARTH
REF_FRAME      = TEME
TIME_SYSTEM    = UTC
MEAN_ELEMENT_THEORY = SGP/SGP4

EPOCH          = 2025-11-12T22:53:42.283968
MEAN_MOTION    = 14.54869076
ECCENTRICITY   = .0047356
INCLINATION    = 98.6770
RA_OF_ASC_NODE = 302.3962
ARG_OF_PERICENTER = 227.1216
MEAN_ANOMALY   = 132.5999

EPHEMERIS_TYPE = 0
CLASSIFICATION_TYPE = U
NORAD_CAT_ID   = 28059
ELEMENT_SET_NO = 999
REV_AT_EPOCH   = 16962
BSTAR          = .24448E-3
MEAN_MOTION_DOT = .1014E-4
MEAN_MOTION_DDOT = 0

CCSDS_OMM_VERS = 2.0
CREATION_DATE  = 
ORIGINATOR     = 

OBJECT_NAME    = CZ-2C R/B
OBJECT_ID      = 2004-012C
CENTER_NAME    = EARTH
REF_FRAME      = TEME
TIME_SYSTEM    = UTC
MEAN_ELEMENT_THEORY = SGP/SGP4

EPOCH          = 2025-11-13T02:56:05.408448
MEAN_MOTION    = 15.52916406
ECCENTRICITY   = .00191881
INCLINATION    = 97.7482
RA_OF_ASC_NODE = 7.3518
ARG_OF_PERICENTER = 22.4017
MEAN_ANOMALY   = 337.8068

EPHEMERIS_TYPE = 0
CLASSIFICATION_TYPE = U
NORAD_CAT_ID   = 28222
ELEMENT_SET_NO = 999
REV_AT_EPOCH   = 18612
BSTAR          = .82390715E-3
MEAN_MOTION_DOT = .51769E-3
MEAN_MOTION_DDOT = 0

CCSDS_OMM_VERS = 2.0
CREATION_DATE  = 
ORIGINATOR     = 

OBJECT_NAME    = SL-16 R/B
OBJECT_ID      = 2004-021B
CENTER_NAME    = EARTH
REF_FRAME      = TEME
TIME_SYSTEM    = UTC
MEAN_ELEMENT_THEORY = SGP/SGP4

EPOCH          = 2025-11-12T20:25:39.932832
MEAN_MOTION    = 14.14572381
ECCENTRICITY   = .00065819
INCLINATION    = 70.9977
RA_OF_ASC_NODE = 117.6850
ARG_OF_PERICENTER = 230.6456
MEAN_ANOMALY   = 129.4084

EPHEMERIS_TYPE = 0
CLASSIFICATION_TYPE = U
NORAD_CAT_ID   = 28353
ELEMENT_SET_NO = 999
REV_AT_EPOCH   = 10631
BSTAR          = .18475702E-3
MEAN_MOTION_DOT = .307E-5
MEAN_MOTION_DDOT = 0

CCSDS_OMM_VERS = 2.0
CREATION_DATE  = 
ORIGINATOR     = 

OBJECT_NAME    = CZ-4B R/B
OBJECT_ID      = 2004-035C
CENTER_NAME    = EARTH
REF_FRAME      = TEME
TIME_SYSTEM    = UTC
MEAN_ELEMENT_THEORY = SGP/SGP4

EPOCH          = 2025-11-13T01:45:55.182240
MEAN_MOTION    = 15.26696574
ECCENTRICITY   = .00345647
INCLINATION    = 97.3654
RA_OF_ASC_NODE = 347.8217
ARG_OF_PERICENTER = 24.8694
MEAN_ANOMALY   = 335.4201

EPHEMERIS_TYPE = 0
CLASSIFICATION_TYPE = U
NORAD_CAT_ID   = 28415
ELEMENT_SET_NO = 999
REV_AT_EPOCH   = 16210
BSTAR          = .68927078E-3
MEAN_MOTION_DOT = .18368E-3
MEAN_MOTION_DDOT = 0

CCSDS_OMM_VERS = 2.0
CREATION_DATE  = 
ORIGINATOR     = 

OBJECT_NAME    = CZ-2C R/B
OBJECT_ID      = 2004-046B
CENTER_NAME    = EARTH
REF_FRAME      = TEME
TIME_SYSTEM    = UTC
MEAN_ELEMENT_THEORY = SGP/SGP4

EPOCH          = 2025-11-13T05:27:52.421184
MEAN_MOTION    = 14.26921566
ECCENTRICITY   = .01402926
INCLINATION    = 98.1961
RA_OF_ASC_NODE = 234.4444
ARG_OF_PERICENTER = 138.8919
MEAN_ANOMALY   = 222.2935

EPHEMERIS_TYPE = 0
CLASSIFICATION_TYPE = U
NORAD_CAT_ID   = 28480
ELEMENT_SET_NO = 999
REV_AT_EPOCH   = 9189
BSTAR          = .17460579E-3
MEAN_MOTION_DOT = .431E-5
MEAN_MOTION_DDOT = 0

