TITAN 4B R/B            
1 26474U 00047B   25317.30614767  .00009808  00000+0  62283-3 0  9994
2 26474  67.9918   7.5014 0041615 179.0392 181.0845 15.08479784375353
ENVISAT                 
1 27386U 02009A   25317.30365795  .00000377  00000+0  13615-3 0  9998
2 27386  98.3553 268.7977 0001298  82.6281  78.8743 14.38983266242436
IDEFIX & ARIANE 42P R/B 
1 27422U 02021B   25317.07513985  .00000769  00000+0  30927-3 0  9993
2 27422  98.5740 252.1582 0011895 165.5104 194.6423 14.30918292227349
AQUA                    
1 27424U 02022A   25317.34355205  .00003380  00000+0  68822-3 0  9992
2 27424  98.3991 277.7539 0000825  55.4467 109.2626 14.61707227251737
CZ-4B R/B               
1 27432U 02024C   25317.14970735  .00000156  00000+0  10356-3 0  9999
2 27432  98.9045   6.0181 0050020 355.1456  68.3623 14.14518963212765
MIDORI II (ADEOS-II)    
1 27597U 02056A   25317.10144363  .00000731  00000+0  30588-3 0  9990
2 27597  98.7589 269.9098 0001332  33.6575 326.4691 14.29175875193642
H-2A R/B                
1 27601U 02056E   25316.87167892  .00000627  00000+0  23420-3 0  9992
2 27601  98.3021 276.8255 0070854 148.8483 231.7537 14.33643868197377
CZ-4B R/B               
1 28059U 03049C   25316.95396162  .00001014  00000+0  24448-3 0  9998
2 28059  98.6770 302.3962 0047356 227.1216 132.5999 14.54869076169626
CZ-2C R/B               
1 28222U 04012C   25317.12228482  .00051769  00000+0  82391-3 0  9993
2 28222  97.7482   7.3518 0019188  22.4017 337.8068 15.52916406186124
SL-16 R/B               
1 28353U 04021B   25316.85115663  .00000307  00000+0  18476-3 0  9998
2 28353  70.9977 117.6850 0006581 230.6456 129.4084 14.14572381106311
CZ-4B R/B               
1 28415U 04035C   25317.07355535  .00018368  00000+0  68927-3 0  9993
2 28415  97.3654 347.8217 0034564  24.8694 335.4201 15.26696574162102
CZ-2C R/B               
1 28480U 04046B   25317.22769006  .00000431  00000+0  17461-3 0  9995
2 28480  98.1961 234.4444 0140292 138.8919 222.2935 14.26921566 91894
